LEMUR-2-ROUNDTRIPPER    
1 62711U 25009DG  26201.22498206  .00004172  00000+0  30418-3 0  9999
2 62711  97.7241 283.8661 0004461  54.9083 305.2560 15.04274927 82593
LEMUR-2-MYNAMEISJEFF    
1 62712U 25009DH  26201.22349966  .00004281  00000+0  31205-3 0  9994
2 62712  97.7288 284.2656 0004363  87.5747 272.5979 15.04266521 82595
LEMUR-2-LEIA-PHILIP     
1 63246U 25052AN  26201.41576248  .00000218  00000+0  23692-4 0  9999
2 63246  97.6790  92.8024 0005055 108.7654 251.4117 14.97393706 73642
LEMUR-2-LIA-MARTIN      
1 63248U 25052AQ  26201.27447155  .00001501  00000+0  13190-3 0  9996
2 63248  97.6850  93.1911 0004942  77.4008 282.7767 14.98047232 73637
LEMUR-2-DELOITTE-1      
1 63259U 25052BB  26201.25575784  .00002458  00000+0  21412-3 0  9994
2 63259  97.6886  93.5026 0002529  57.2347 302.9118 14.97807195 73647
LEMUR-2-EMERSONROSE     
1 63261U 25052BD  26201.26484667  .00002290  00000+0  19231-3 0  9997
2 63261  97.6885  94.1364 0002432  47.4222 312.7206 14.99315888 73694
LEMUR-2-MARACHE-FRAN    
1 63262U 25052BE  26201.41750040  .00001851  00000+0  15230-3 0  9993
2 63262  97.6815  94.6586 0005815 231.5987 128.4715 15.00333801 73742
LEMUR-2-THEFALCONER     
1 63264U 25052BG  26201.42060756  .00001376  00000+0  12278-3 0  9995
2 63264  97.6814  93.2494 0000713 219.9782 140.1388 14.97576224 73662
LEMUR-2-UNTITLED-SC     
1 63351U 25061A   26201.34228453  .00001981  00000+0  11339-3 0  9992
2 63351  97.5661 176.4706 0019683 145.9773 214.2725 15.13665807 72608
LEMUR-2-ESPERANZA       
1 63352U 25061B   26201.38336018  .00001845  00000+0  10557-3 0  9994
2 63352  97.5668 176.6129 0019317 145.2255 215.0243 15.13771778 72619
LEMUR-2-KREMPEL-BRO2    
1 63353U 25061C   26201.46695351  .00002041  00000+0  11498-3 0  9996
2 63353  97.5713 177.2716 0020445 137.9301 222.3505 15.14199792 72640
LEMUR-2-THERMORAPTOR    
1 63354U 25061D   26201.38114194  .00002012  00000+0  11314-3 0  9994
2 63354  97.5720 177.2683 0020154 137.1817 223.0988 15.14282644 72634
LEMUR-2-NEUROSPICY      
1 63355U 25061E   26201.35024996  .00002029  00000+0  11376-3 0  9998
2 63355  97.5648 176.8382 0017914 140.0523 220.2031 15.14401100 72630
LEMUR-2-TILLINFINITY    
1 63356U 25061F   26201.37273291  .00002120  00000+0  11673-3 0  9997
2 63356  97.5632 177.1742 0019411 129.1130 231.1832 15.14986499 72666
LEMUR-2-KREMPEL-BRO1    
1 63357U 25061G   26201.35044445  .00002060  00000+0  11412-3 0  9997
2 63357  97.5634 177.0588 0020059 130.4933 229.8051 15.14792561 72653
LEMUR-2-LANGER2SPACE    
1 63358U 25061H   26201.38361261  .00002023  00000+0  11320-3 0  9996
2 63358  97.5637 176.8924 0017854 138.3699 221.8895 15.14486134 72646
LEMUR-2-BALTO           
1 63395U 25052BH  26201.26829479  .00002405  00000+0  19619-3 0  9997
2 63395  97.6917  94.5064 0004981 305.3913  54.6845 15.00388723 73729
LEMUR-2-KRISH           
1 64561U 25135AK  26201.57652435  .00002553  00000+0  23003-3 0  9991
2 64561  97.7762 316.2325 0001133 107.7296 252.4049 14.96470751 58917
LEMUR-2-HUBBLE-4        
1 64565U 25135AP  26201.29939443  .00000472  00000+0  49998-4 0  9991
2 64565  97.7722 314.8238 0003051 150.2214 209.9180 14.93693240 58817
LEMUR-2-SEJONG-2        
1 64586U 25135BL  26201.59589140  .00002916  00000+0  25891-3 0  9992
2 64586  97.7709 316.3973 0004293 193.4090 166.7018 14.96938504 58940
LEMUR-2-HUBBLE-5        
1 64840U 25135BT  26201.57429551  .00000560  00000+0  57564-4 0  9998
2 64840  97.7742 315.7704 0004744 213.7886 146.3032 14.94220542 58893
LEMUR-2-KARENDARRELL    
1 64841U 25135BU  26201.59794481  .00004453  00000+0  35725-3 0  9997
2 64841  97.7721 317.7663 0012882  88.5015 271.7684 15.00543966 59029
LEMUR-2-LUCILLE-ROSE    
1 65403U 25135BV  26201.57145621  .00004005  00000+0  32174-3 0  9994
2 65403  97.7696 317.7740 0015443 173.0509 187.0932 15.00526535 53645
LEMUR-2-AFFIE-WAUWIE    
1 66295U 25248C   26201.27165169  .00012608  00000+0  45736-3 0  9991
2 66295  45.3906 295.5651 0009267 278.2221  81.7618 15.28387854 39653
OTTER SDM               
1 66678U 25276N   26201.16613050  .00003408  00000+0  16096-3 0  9997
2 66678  97.4196 274.1002 0004592 231.2550 128.8275 15.20089645 35422
LEMUR-2-STAS-GORBUK     
1 66686U 25276W   26201.45225084  .00002836  00000+0  13605-3 0  9991
2 66686  97.4229 274.4327 0003982 223.8337 136.2582 15.19688263 35460
LEMUR-2-TEODOR          
1 66768U 25276DG  26201.20213845  .00003122  00000+0  14237-3 0  9998
2 66768  97.4133 274.4649 0002120  83.9937 276.1541 15.21367481 35464
LEMUR-2-LAILA           
1 66776U 25276DQ  26201.17119574  .00003106  00000+0  14076-3 0  9990
2 66776  97.4158 274.5763 0002838  87.0406 273.1155 15.21594012 35460
LEMUR-2-CELIJO-SB-PK    
1 66781U 25276DW  26201.45378995  .00003218  00000+0  26110-3 0  9997
2 66781  97.5183 271.1326 0006704  51.6535 308.5291 15.00316866 27617
